[Satellite]
VERSION=1.1
NAME=COSMO-SKYMED 4
NICKNAME=COSMO-SKYMED 4
TLE1=1 37216U 10060A   17184.69669904 -.00000052  00000-0 -87649-8 0  9997
TLE2=2 37216  97.8873   8.1607 0001341  83.7168 276.4205 14.82151665360180
